STARLINK-33694          
1 63407U 25065J   25172.34329622  .00031474  00000+0  75718-3 0  9995
2 63407  43.0003 145.3331 0001815 265.9747  94.0902 15.40716852 13633
STARLINK-33692          
1 63408U 25065K   25172.19621742  .00017059  00000+0  62787-3 0  9992
2 63408  43.0044 147.6793 0002567 295.1240  64.9345 15.27586234 12803
STARLINK-33693          
1 63409U 25065L   25172.34777776  .00030432  00000+0  73246-3 0  9991
2 63409  43.0003 145.3675 0001697 265.1536  94.9127 15.40716662 13583
STARLINK-33677          
1 63410U 25065M   25172.33433674  .00045574  00000+0  10917-2 0  9996
2 63410  42.9984 145.2623 0001568 255.8891 104.1791 15.40701001 12840
STARLINK-33647          
1 63411U 25065N   25172.34192407  .00006868  00000+0  25882-3 0  9995
2 63411  43.0015 150.5143 0001643 278.0085  82.0581 15.27588058 13572
STARLINK-33645          
1 63412U 25065P   25171.99706601  .00015457  00000+0  55560-3 0  9993
2 63412  43.0013 148.6875 0001705 265.0360  95.0297 15.28422793 12775
STARLINK-33670          
1 63413U 25065Q   25172.19781730  .00028738  00000+0  69272-3 0  9994
2 63413  42.9998 145.0607 0001606 271.8052  88.2621 15.40695483 12837
STARLINK-33644          
1 63414U 25065R   25172.81107565 -.00513034  00000+0 -14022-1 0  9993
2 63414  42.9977 141.0419 0000834 209.1253 150.9556 15.38697149 13564
STARLINK-33664          
1 63415U 25065S   25172.60905831  .00025182  00000+0  60802-3 0  9992
2 63415  42.9985 142.1152 0000569 339.4188  20.6646 15.40704326 13538
STARLINK-33649          
1 63416U 25065T   25172.64252469  .00008612  00000+0  21331-3 0  9992
2 63416  43.0000 141.4879 0001083 283.6496  76.4240 15.40682412 13553
STARLINK-33535          
1 63417U 25065U   25172.58334491 -.00024095  00000+0 -86836-3 0  9998
2 63417  42.9998 141.5616 0000955 271.6134 227.0463 15.27600854  5738
STARLINK-33703          
1 63418U 25065V   25172.61135343 -.00022536  00000+0 -53761-3 0  9997
2 63418  43.0050 142.1226 0005386 295.8911  64.1390 15.40468389 13523
STARLINK-33709          
1 63419U 25065W   25172.62473366  .00125819  00000+0  29652-2 0  9996
2 63419  43.0105 142.2215 0000678 335.6552  24.4272 15.40747322 13522
STARLINK-33698          
1 63420U 25065X   25172.58334491 -.00031979  00000+0 -11274-2 0  9994
2 63420  42.9997 141.3597 0001749 288.6602 294.3942 15.28440094 13532
