[
  {
    "OBJECT_NAME": "STARLINK-33694",
    "OBJECT_ID": "2025-065J",
    "EPOCH": "2025-06-21T08:14:20.793408",
    "MEAN_MOTION": 15.40716852,
    "ECCENTRICITY": 0.0001815,
    "INCLINATION": 43.0003,
    "RA_OF_ASC_NODE": 145.3331,
    "ARG_OF_PERICENTER": 265.9747,
    "MEAN_ANOMALY": 94.0902,
    "EPHEMERIS_TYPE": 0,
    "CLASSIFICATION_TYPE": "U",
    "NORAD_CAT_ID": 63407,
    "ELEMENT_SET_NO": 999,
    "REV_AT_EPOCH": 1363,
    "BSTAR": 0.00075718,
    "MEAN_MOTION_DOT": 0.00031474,
    "MEAN_MOTION_DDOT": 0
  },
  {
    "OBJECT_NAME": "STARLINK-33692",
    "OBJECT_ID": "2025-065K",
    "EPOCH": "2025-06-21T04:42:33.185088",
    "MEAN_MOTION": 15.27586234,
    "ECCENTRICITY": 0.0002567,
    "INCLINATION": 43.0044,
    "RA_OF_ASC_NODE": 147.6793,
    "ARG_OF_PERICENTER": 295.124,
    "MEAN_ANOMALY": 64.9345,
    "EPHEMERIS_TYPE": 0,
    "CLASSIFICATION_TYPE": "U",
    "NORAD_CAT_ID": 63408,
    "ELEMENT_SET_NO": 999,
    "REV_AT_EPOCH": 1280,
    "BSTAR": 0.00062787,
    "MEAN_MOTION_DOT": 0.00017059,
    "MEAN_MOTION_DDOT": 0
  },
  {
    "OBJECT_NAME": "STARLINK-33693",
    "OBJECT_ID": "2025-065L",
    "EPOCH": "2025-06-21T08:20:47.998464",
    "MEAN_MOTION": 15.40716662,
    "ECCENTRICITY": 0.0001697,
    "INCLINATION": 43.0003,
    "RA_OF_ASC_NODE": 145.3675,
    "ARG_OF_PERICENTER": 265.1536,
    "MEAN_ANOMALY": 94.9127,
    "EPHEMERIS_TYPE": 0,
    "CLASSIFICATION_TYPE": "U",
    "NORAD_CAT_ID": 63409,
    "ELEMENT_SET_NO": 999,
    "REV_AT_EPOCH": 1358,
    "BSTAR": 0.00073246,
    "MEAN_MOTION_DOT": 0.00030432,
    "MEAN_MOTION_DDOT": 0
  },
  {
    "OBJECT_NAME": "STARLINK-33677",
    "OBJECT_ID": "2025-065M",
    "EPOCH": "2025-06-21T08:01:26.694336",
    "MEAN_MOTION": 15.40701001,
    "ECCENTRICITY": 0.0001568,
    "INCLINATION": 42.9984,
    "RA_OF_ASC_NODE": 145.2623,
    "ARG_OF_PERICENTER": 255.8891,
    "MEAN_ANOMALY": 104.1791,
    "EPHEMERIS_TYPE": 0,
    "CLASSIFICATION_TYPE": "U",
    "NORAD_CAT_ID": 63410,
    "ELEMENT_SET_NO": 999,
    "REV_AT_EPOCH": 1284,
    "BSTAR": 0.0010917,
    "MEAN_MOTION_DOT": 0.00045574,
    "MEAN_MOTION_DDOT": 0
  },
  {
    "OBJECT_NAME": "STARLINK-33647",
    "OBJECT_ID": "2025-065N",
    "EPOCH": "2025-06-21T08:12:22.239648",
    "MEAN_MOTION": 15.27588058,
    "ECCENTRICITY": 0.0001643,
    "INCLINATION": 43.0015,
    "RA_OF_ASC_NODE": 150.5143,
    "ARG_OF_PERICENTER": 278.0085,
    "MEAN_ANOMALY": 82.0581,
    "EPHEMERIS_TYPE": 0,
    "CLASSIFICATION_TYPE": "U",
    "NORAD_CAT_ID": 63411,
    "ELEMENT_SET_NO": 999,
    "REV_AT_EPOCH": 1357,
    "BSTAR": 0.00025882,
    "MEAN_MOTION_DOT": 6.868e-05,
    "MEAN_MOTION_DDOT": 0
  },
  {
    "OBJECT_NAME": "STARLINK-33645",
    "OBJECT_ID": "2025-065P",
    "EPOCH": "2025-06-20T23:55:46.503264",
    "MEAN_MOTION": 15.28422793,
    "ECCENTRICITY": 0.0001705,
    "INCLINATION": 43.0013,
    "RA_OF_ASC_NODE": 148.6875,
    "ARG_OF_PERICENTER": 265.036,
    "MEAN_ANOMALY": 95.0297,
    "EPHEMERIS_TYPE": 0,
    "CLASSIFICATION_TYPE": "U",
    "NORAD_CAT_ID": 63412,
    "ELEMENT_SET_NO": 999,
    "REV_AT_EPOCH": 1277,
    "BSTAR": 0.0005556,
    "MEAN_MOTION_DOT": 0.00015457,
    "MEAN_MOTION_DDOT": 0
  },
  {
    "OBJECT_NAME": "STARLINK-33670",
    "OBJECT_ID": "2025-065Q",
    "EPOCH": "2025-06-21T04:44:51.414720",
    "MEAN_MOTION": 15.40695483,
    "ECCENTRICITY": 0.0001606,
    "INCLINATION": 42.9998,
    "RA_OF_ASC_NODE": 145.0607,
    "ARG_OF_PERICENTER": 271.8052,
    "MEAN_ANOMALY": 88.2621,
    "EPHEMERIS_TYPE": 0,
    "CLASSIFICATION_TYPE": "U",
    "NORAD_CAT_ID": 63413,
    "ELEMENT_SET_NO": 999,
    "REV_AT_EPOCH": 1283,
    "BSTAR": 0.00069272,
    "MEAN_MOTION_DOT": 0.00028738,
    "MEAN_MOTION_DDOT": 0
  },
  {
    "OBJECT_NAME": "STARLINK-33644",
    "OBJECT_ID": "2025-065R",
    "EPOCH": "2025-06-21T19:27:56.936160",
    "MEAN_MOTION": 15.38697149,
    "ECCENTRICITY": 8.34e-05,
    "INCLINATION": 42.9977,
    "RA_OF_ASC_NODE": 141.0419,
    "ARG_OF_PERICENTER": 209.1253,
    "MEAN_ANOMALY": 150.9556,
    "EPHEMERIS_TYPE": 0,
    "CLASSIFICATION_TYPE": "U",
    "NORAD_CAT_ID": 63414,
    "ELEMENT_SET_NO": 999,
    "REV_AT_EPOCH": 1356,
    "BSTAR": -0.014022,
    "MEAN_MOTION_DOT": -0.00513034,
    "MEAN_MOTION_DDOT": 0
  },
  {
    "OBJECT_NAME": "STARLINK-33664",
    "OBJECT_ID": "2025-065S",
    "EPOCH": "2025-06-21T14:37:02.637984",
    "MEAN_MOTION": 15.40704326,
    "ECCENTRICITY": 5.69e-05,
    "INCLINATION": 42.9985,
    "RA_OF_ASC_NODE": 142.1152,
    "ARG_OF_PERICENTER": 339.4188,
    "MEAN_ANOMALY": 20.6646,
    "EPHEMERIS_TYPE": 0,
    "CLASSIFICATION_TYPE": "U",
    "NORAD_CAT_ID": 63415,
    "ELEMENT_SET_NO": 999,
    "REV_AT_EPOCH": 1353,
    "BSTAR": 0.00060802,
    "MEAN_MOTION_DOT": 0.00025182,
    "MEAN_MOTION_DDOT": 0
  },
  {
    "OBJECT_NAME": "STARLINK-33649",
    "OBJECT_ID": "2025-065T",
    "EPOCH": "2025-06-21T15:25:14.133216",
    "MEAN_MOTION": 15.40682412,
    "ECCENTRICITY": 0.0001083,
    "INCLINATION": 43,
    "RA_OF_ASC_NODE": 141.4879,
    "ARG_OF_PERICENTER": 283.6496,
    "MEAN_ANOMALY": 76.424,
    "EPHEMERIS_TYPE": 0,
    "CLASSIFICATION_TYPE": "U",
    "NORAD_CAT_ID": 63416,
    "ELEMENT_SET_NO": 999,
    "REV_AT_EPOCH": 1355,
    "BSTAR": 0.00021331,
    "MEAN_MOTION_DOT": 8.612e-05,
    "MEAN_MOTION_DDOT": 0
  },
  {
    "OBJECT_NAME": "STARLINK-33535",
    "OBJECT_ID": "2025-065U",
    "EPOCH": "2025-06-21T14:00:01.000224",
    "MEAN_MOTION": 15.27600854,
    "ECCENTRICITY": 9.55e-05,
    "INCLINATION": 42.9998,
    "RA_OF_ASC_NODE": 141.5616,
    "ARG_OF_PERICENTER": 271.6134,
    "MEAN_ANOMALY": 227.0463,
    "EPHEMERIS_TYPE": 0,
    "CLASSIFICATION_TYPE": "U",
    "NORAD_CAT_ID": 63417,
    "ELEMENT_SET_NO": 999,
    "REV_AT_EPOCH": 573,
    "BSTAR": -0.00086836,
    "MEAN_MOTION_DOT": -0.00024095,
    "MEAN_MOTION_DDOT": 0
  },
  {
    "OBJECT_NAME": "STARLINK-33703",
    "OBJECT_ID": "2025-065V",
    "EPOCH": "2025-06-21T14:40:20.936352",
    "MEAN_MOTION": 15.40468389,
    "ECCENTRICITY": 0.0005386,
    "INCLINATION": 43.005,
    "RA_OF_ASC_NODE": 142.1226,
    "ARG_OF_PERICENTER": 295.8911,
    "MEAN_ANOMALY": 64.139,
    "EPHEMERIS_TYPE": 0,
    "CLASSIFICATION_TYPE": "U",
    "NORAD_CAT_ID": 63418,
    "ELEMENT_SET_NO": 999,
    "REV_AT_EPOCH": 1352,
    "BSTAR": -0.00053761,
    "MEAN_MOTION_DOT": -0.00022536,
    "MEAN_MOTION_DDOT": 0
  },
  {
    "OBJECT_NAME": "STARLINK-33709",
    "OBJECT_ID": "2025-065W",
    "EPOCH": "2025-06-21T14:59:36.988224",
    "MEAN_MOTION": 15.40747322,
    "ECCENTRICITY": 6.78e-05,
    "INCLINATION": 43.0105,
    "RA_OF_ASC_NODE": 142.2215,
    "ARG_OF_PERICENTER": 335.6552,
    "MEAN_ANOMALY": 24.4272,
    "EPHEMERIS_TYPE": 0,
    "CLASSIFICATION_TYPE": "U",
    "NORAD_CAT_ID": 63419,
    "ELEMENT_SET_NO": 999,
    "REV_AT_EPOCH": 1352,
    "BSTAR": 0.0029652,
    "MEAN_MOTION_DOT": 0.00125819,
    "MEAN_MOTION_DDOT": 0
  },
  {
    "OBJECT_NAME": "STARLINK-33698",
    "OBJECT_ID": "2025-065X",
    "EPOCH": "2025-06-21T14:00:01.000224",
    "MEAN_MOTION": 15.28440094,
    "ECCENTRICITY": 0.0001749,
    "INCLINATION": 42.9997,
    "RA_OF_ASC_NODE": 141.3597,
    "ARG_OF_PERICENTER": 288.6602,
    "MEAN_ANOMALY": 294.3942,
    "EPHEMERIS_TYPE": 0,
    "CLASSIFICATION_TYPE": "U",
    "NORAD_CAT_ID": 63420,
    "ELEMENT_SET_NO": 999,
    "REV_AT_EPOCH": 1353,
    "BSTAR": -0.0011274,
    "MEAN_MOTION_DOT": -0.00031979,
    "MEAN_MOTION_DDOT": 0
  }
]